FENGYUN 1C DEB          
1 29889U 99025GK  17345.71597331 -.00000093  00000-0 -21800-4 0  9996
2 29889  99.4616 250.4841 0159440 217.7993 196.2506 14.10228808560956
